TIANMU-1 21             
1 58662U 23208C   26177.76424975  .00009380  00000+0  27640-3 0  9990
2 58662  97.4510 297.4811 0005662 281.5044  78.5563 15.35238260139035
TIANMU-1 22             
1 58663U 23208D   26177.61441770  .00007689  00000+0  25783-3 0  9993
2 58663  97.4505 293.8910 0002412 322.2808  37.8264 15.31181798138776
TIANMU-1 15             
1 58700U 24004A   26177.79706347  .00005870  00000+0  22557-3 0  9999
2 58700  97.4665   3.9892 0005701 312.2214  47.8540 15.26803621137247
TIANMU-1 16             
1 58701U 24004B   26177.72207344  .00005646  00000+0  21689-3 0  9992
2 58701  97.4613   3.1413 0004894 332.0268  28.0706 15.26839569137237
TIANMU-1 17             
1 58702U 24004C   26177.77307054  .00005433  00000+0  20881-3 0  9994
2 58702  97.4640   3.6806 0004573 339.3613  20.7440 15.26839006137237
TIANMU-1 18             
1 58703U 24004D   26177.48600076  .00005643  00000+0  21648-3 0  9998
2 58703  97.4659   3.6545 0003354 326.1029  33.9995 15.26886664137197
INSAT-3DS               
1 58990U 24033A   26177.68188024 -.00000144  00000+0  00000+0 0  9991
2 58990   0.0608 100.8725 0001468 344.9588 156.5219  1.00270688 47169
METEOR-M2 4             
1 59051U 24039A   26177.74994760  .00000002  00000+0  20744-4 0  9999
2 59051  98.7014 136.9279 0007790 135.2995 224.8812 14.22430436120622
GOES 19                 
1 60133U 24119A   26177.57946811 -.00000237  00000+0  00000+0 0  9995
2 60133   0.0028 105.6097 0000612  37.8145 264.6931  1.00272215  7053
MTG-S1                  
1 64723U 25143A   26175.74071355  .00000023  00000+0  00000+0 0  9993
2 64723   0.5970 340.6178 0000585 288.6722 269.7793  1.00400949  3493
METOP-SGA1              
1 65159U 25172A   26177.72378612  .00000037  00000+0  37947-4 0  9995
2 65159  98.6642 237.2491 0008117  26.0511 334.1072 14.19816506 45148
FENGYUN 3H              
1 65815U 25219A   26177.76539000  .00000031  00000+0  34793-4 0  9990
2 65815  98.6769 118.3483 0001512  70.5569 289.5771 14.19921963 38747
